start=new Date('2022-05-04T00:00:00.000Z').valueOf();
sats=[{"MEAN_ANOMALY":"315.7717","REF_FRAME":"TEME","EPOCH":"2022-05-03T22:00:00.999936","PERIAPSIS":"545.822","LAUNCH_DATE":"2021-04-29","GP_ID":"202633914","OBJECT_NAME":"STARLINK-2567","NORAD_CAT_ID":"48276","DECAY_DATE":null,"FILE":"3427573","INCLINATION":"53.0534","OBJECT_TYPE":"PAYLOAD","TLE_LINE1":"1 48276U 21036A   22123.91667824 -.00042589  00000-0 -28540-2 0  9993","OBJECT_ID":"2021-036A","BSTAR":"-0.00285400000000","MEAN_MOTION":"15.06442944","PERIOD":"95.589","SEMIMAJOR_AXIS":"6925.217","ELEMENT_SET_NO":"999","MEAN_MOTION_DOT":"-0.00042589","REV_AT_EPOCH":"361","APOAPSIS":"548.342","MEAN_ELEMENT_THEORY":"SGP4","CENTER_NAME":"EARTH","TLE_LINE2":"2 48276  53.0534 237.3847 0001820  51.5134 315.7717 15.06442944  3613","RA_OF_ASC_NODE":"237.3847","TIME_SYSTEM":"UTC","RCS_SIZE":"LARGE","ARG_OF_PERICENTER":"51.5134","CLASSIFICATION_TYPE":"U","MEAN_MOTION_DDOT":"0.0000000000000","COUNTRY_CODE":"US","ECCENTRICITY":"0.00018200","SITE":"AFETR","EPHEMERIS_TYPE":"0"},{"NORAD_CAT_ID":"48277","GP_ID":"202633662","OBJECT_NAME":"STARLINK-2569","LAUNCH_DATE":"2021-04-29","PERIAPSIS":"545.933","OBJECT_TYPE":"PAYLOAD","INCLINATION":"53.0543","FILE":"3427573","DECAY_DATE":null,"MEAN_ANOMALY":"295.2715","EPOCH":"2022-05-03T22:00:00.999936","REF_FRAME":"TEME","PERIOD":"95.590","MEAN_MOTION":"15.06431118","TLE_LINE1":"1 48277U 21036B   22123.91667824 -.00029200  00000-0 -19478-2 0  9999","OBJECT_ID":"2021-036B","BSTAR":"-0.00194780000000","REV_AT_EPOCH":"361","RA_OF_ASC_NODE":"202.3860","CENTER_NAME":"EARTH","TLE_LINE2":"2 48277  53.0543 202.3860 0001711  64.5086 295.2715 15.06431118  3611","MEAN_ELEMENT_THEORY":"SGP4","APOAPSIS":"548.303","SEMIMAJOR_AXIS":"6925.253","MEAN_MOTION_DOT":"-0.00029200","ELEMENT_SET_NO":"999","MEAN_MOTION_DDOT":"0.0000000000000","COUNTRY_CODE":"US","CLASSIFICATION_TYPE":"U","EPHEMERIS_TYPE":"0","SITE":"AFETR","ECCENTRICITY":"0.00017110","ARG_OF_PERICENTER":"64.5086","RCS_SIZE":"LARGE","TIME_SYSTEM":"UTC"},{"REF_FRAME":"TEME","MEAN_ANOMALY":"115.7082","EPOCH":"2022-05-03T22:00:00.999936","LAUNCH_DATE":"2021-04-29","PERIAPSIS":"545.866","GP_ID":"202604160","OBJECT_NAME":"STARLINK-2543","NORAD_CAT_ID":"48278","INCLINATION":"53.0466","FILE":"3427207","OBJECT_TYPE":"PAYLOAD","DECAY_DATE":null,"TLE_LINE1":"1 48278U 21036C   22123.91667824 -.00019205  00000-0 -12735-2 0  9993","BSTAR":"-0.00127350000000","OBJECT_ID":"2021-036C","PERIOD":"95.592","MEAN_MOTION":"15.06409011","SEMIMAJOR_AXIS":"6925.321","MEAN_MOTION_DOT":"-0.00019205","ELEMENT_SET_NO":"999","REV_AT_EPOCH":"5777","TLE_LINE2":"2 48278  53.0466 217.4669 0001906  41.6180 115.7082 15.06409011 57773","CENTER_NAME":"EARTH","RA_OF_ASC_NODE":"217.4669","MEAN_ELEMENT_THEORY":"SGP4","APOAPSIS":"548.506","ARG_OF_PERICENTER":"41.6180","TIME_SYSTEM":"UTC","RCS_SIZE":"LARGE","MEAN_MOTION_DDOT":"0.0000000000000","COUNTRY_CODE":"US","CLASSIFICATION_TYPE":"U","EPHEMERIS_TYPE":"0","SITE":"AFETR","ECCENTRICITY":"0.00019060"},{"DECAY_DATE":null,"INCLINATION":"53.0539","FILE":"3427573","OBJECT_TYPE":"PAYLOAD","LAUNCH_DATE":"2021-04-29","PERIAPSIS":"545.876","GP_ID":"202634667","OBJECT_NAME":"STARLINK-2580","NORAD_CAT_ID":"48279","EPOCH":"2022-05-03T22:00:00.999936","REF_FRAME":"TEME","MEAN_ANOMALY":"149.3614","MEAN_MOTION":"15.06447192","PERIOD":"95.589","OBJECT_ID":"2021-036D","BSTAR":"-0.00484910000000","TLE_LINE1":"1 48279U 21036D   22123.91667824 -.00071876  00000-0 -48491-2 0  9994","APOAPSIS":"548.261","MEAN_ELEMENT_THEORY":"SGP4","TLE_LINE2":"2 48279  53.0539 217.3900 0001722  47.9084 149.3614 15.06447192  3609","CENTER_NAME":"EARTH","RA_OF_ASC_NODE":"217.3900","REV_AT_EPOCH":"360","ELEMENT_SET_NO":"999","MEAN_MOTION_DOT":"-0.00071876","SEMIMAJOR_AXIS":"6925.204","ECCENTRICITY":"0.00017220","SITE":"AFETR","EPHEMERIS_TYPE":"0","CLASSIFICATION_TYPE":"U","MEAN_MOTION_DDOT":"0.0000000000000","COUNTRY_CODE":"US","TIME_SYSTEM":"UTC","RCS_SIZE":"LARGE","ARG_OF_PERICENTER":"47.9084"},{"EPOCH":"2022-05-03T20:58:23.616480","MEAN_ANOMALY":"283.3538","REF_FRAME":"TEME","OBJECT_TYPE":"PAYLOAD","FILE":"3427573","INCLINATION":"53.0551","DECAY_DATE":null,"GP_ID":"202633415","OBJECT_NAME":"STARLINK-2565","NORAD_CAT_ID":"48280","PERIAPSIS":"546.219","LAUNCH_DATE":"2021-04-29","BSTAR":"0.00022821000000","OBJECT_ID":"2021-036E","TLE_LINE1":"1 48280U 21036E   22123.87388445  .00003120  00000-0  22821-3 0  9995","PERIOD":"95.592","MEAN_MOTION":"15.06402213","ELEMENT_SET_NO":"999","MEAN_MOTION_DOT":"0.00003120","SEMIMAJOR_AXIS":"6925.342","RA_OF_ASC_NODE":"287.5644","TLE_LINE2":"2 48280  53.0551 287.5644 0001427  76.7610 283.3538 15.06402213 56210","CENTER_NAME":"EARTH","APOAPSIS":"548.195","MEAN_ELEMENT_THEORY":"SGP4","REV_AT_EPOCH":"5621","ARG_OF_PERICENTER":"76.7610","RCS_SIZE":"LARGE","TIME_SYSTEM":"UTC","EPHEMERIS_TYPE":"0","SITE":"AFETR","ECCENTRICITY":"0.00014270","COUNTRY_CODE":"US","MEAN_MOTION_DDOT":"0.0000000000000","CLASSIFICATION_TYPE":"U"},{"REV_AT_EPOCH":"5648","TLE_LINE2":"2 48281  53.0536 267.8156 0001418  79.8248 280.2901 15.06399876 56483","CENTER_NAME":"EARTH","RA_OF_ASC_NODE":"267.8156","APOAPSIS":"548.196","MEAN_ELEMENT_THEORY":"SGP4","SEMIMAJOR_AXIS":"6925.349","ELEMENT_SET_NO":"999","MEAN_MOTION_DOT":"0.00003793","COUNTRY_CODE":"US","MEAN_MOTION_DDOT":"0.0000000000000","CLASSIFICATION_TYPE":"U","EPHEMERIS_TYPE":"0","SITE":"AFETR","ECCENTRICITY":"0.00014180","ARG_OF_PERICENTER":"79.8248","TIME_SYSTEM":"UTC","RCS_SIZE":"LARGE","PERIAPSIS":"546.232","LAUNCH_DATE":"2021-04-29","OBJECT_NAME":"STARLINK-2520","GP_ID":"202634162","NORAD_CAT_ID":"48281","FILE":"3427573","INCLINATION":"53.0536","OBJECT_TYPE":"PAYLOAD","DECAY_DATE":null,"REF_FRAME":"TEME","EPOCH":"2022-05-03T19:41:25.760256","MEAN_ANOMALY":"280.2901","PERIOD":"95.592","MEAN_MOTION":"15.06399876","TLE_LINE1":"1 48281U 21036F   22123.82043704  .00003793  00000-0  27336-3 0  9999","OBJECT_ID":"2021-036F","BSTAR":"0.00027336000000"},{"PERIOD":"95.592","MEAN_MOTION":"15.06400383","BSTAR":"0.00025139000000","OBJECT_ID":"2021-036G","TLE_LINE1":"1 48282U 21036G   22123.84393359  .00003465  00000-0  25139-3 0  9991","OBJECT_TYPE":"PAYLOAD","FILE":"3427213","INCLINATION":"53.0546","DECAY_DATE":null,"GP_ID":"202603928","OBJECT_NAME":"STARLINK-2558","NORAD_CAT_ID":"48282","PERIAPSIS":"546.157","LAUNCH_DATE":"2021-04-29","MEAN_ANOMALY":"287.6267","REF_FRAME":"TEME","EPOCH":"2022-05-03T20:15:15.862176","SITE":"AFETR","EPHEMERIS_TYPE":"0","ECCENTRICITY":"0.00015240","COUNTRY_CODE":"US","MEAN_MOTION_DDOT":"0.0000000000000","CLASSIFICATION_TYPE":"U","ARG_OF_PERICENTER":"72.4889","RCS_SIZE":"LARGE","TIME_SYSTEM":"UTC","RA_OF_ASC_NODE":"272.7123","CENTER_NAME":"EARTH","TLE_LINE2":"2 48282  53.0546 272.7123 0001524  72.4889 287.6267 15.06400383 57003","APOAPSIS":"548.268","MEAN_ELEMENT_THEORY":"SGP4","REV_AT_EPOCH":"5700","ELEMENT_SET_NO":"999","MEAN_MOTION_DOT":"0.00003465","SEMIMAJOR_AXIS":"6925.347"},{"APOAPSIS":"548.255","MEAN_ELEMENT_THEORY":"SGP4","CENTER_NAME":"EARTH","TLE_LINE2":"2 48283  53.0556 273.0294 0001543  63.9477 296.1671 15.06408882 56417","RA_OF_ASC_NODE":"273.0294","REV_AT_EPOCH":"5641","MEAN_MOTION_DOT":"0.00005008","ELEMENT_SET_NO":"999","SEMIMAJOR_AXIS":"6925.321","ECCENTRICITY":"0.00015430","SITE":"AFETR","EPHEMERIS_TYPE":"0","CLASSIFICATION_TYPE":"U","COUNTRY_CODE":"US","MEAN_MOTION_DDOT":"0.0000000000000","TIME_SYSTEM":"UTC","RCS_SIZE":"LARGE","ARG_OF_PERICENTER":"63.9477","DECAY_DATE":null,"INCLINATION":"53.0556","FILE":"3427573","OBJECT_TYPE":"PAYLOAD","PERIAPSIS":"546.118","LAUNCH_DATE":"2021-04-29","GP_ID":"202635166","OBJECT_NAME":"STARLINK-2516","NORAD_CAT_ID":"48283","REF_FRAME":"TEME","MEAN_ANOMALY":"296.1671","EPOCH":"2022-05-03T18:34:25.000608","MEAN_MOTION":"15.06408882","PERIOD":"95.592","OBJECT_ID":"2021-036H","BSTAR":"0.00035477000000","TLE_LINE1":"1 48283U 21036H   22123.77390047  .00005008  00000-0  35477-3 0  9996"},{"SEMIMAJOR_AXIS":"6925.346","ELEMENT_SET_NO":"999","MEAN_MOTION_DOT":"0.00002418","REV_AT_EPOCH":"5641","APOAPSIS":"548.240","MEAN_ELEMENT_THEORY":"SGP4","CENTER_NAME":"EARTH","TLE_LINE2":"2 48284  53.0548 272.7288 0001486  65.7881 294.3263 15.06400928 56413","RA_OF_ASC_NODE":"272.7288","TIME_SYSTEM":"UTC","RCS_SIZE":"LARGE","ARG_OF_PERICENTER":"65.7881","CLASSIFICATION_TYPE":"U","COUNTRY_CODE":"US","MEAN_MOTION_DDOT":"0.0000000000000","ECCENTRICITY":"0.00014860","EPHEMERIS_TYPE":"0","SITE":"AFETR","EPOCH":"2022-05-03T20:04:38.837568","REF_FRAME":"TEME","MEAN_ANOMALY":"294.3263","PERIAPSIS":"546.182","LAUNCH_DATE":"2021-04-29","GP_ID":"202633915","OBJECT_NAME":"STARLINK-2564","NORAD_CAT_ID":"48284","DECAY_DATE":null,"FILE":"3427573","INCLINATION":"53.0548","OBJECT_TYPE":"PAYLOAD","TLE_LINE1":"1 48284U 21036J   22123.83656062  .00002418  00000-0  18119-3 0  9992","OBJECT_ID":"2021-036J","BSTAR":"0.00018119000000","MEAN_MOTION":"15.06400928","PERIOD":"95.592"},{"FILE":"3427573","INCLINATION":"53.0559","OBJECT_TYPE":"PAYLOAD","DECAY_DATE":null,"LAUNCH_DATE":"2021-04-29","PERIAPSIS":"546.190","OBJECT_NAME":"STARLINK-2548","GP_ID":"202633663","NORAD_CAT_ID":"48285","REF_FRAME":"TEME","MEAN_ANOMALY":"284.2349","EPOCH":"2022-05-03T19:59:19.688064","PERIOD":"95.592","MEAN_MOTION":"15.06400803","OBJECT_ID":"2021-036K","BSTAR":"0.00005470700000","TLE_LINE1":"1 48285U 21036K   22123.83286676  .00000533  00000-0  54707-4 0  9993","TLE_LINE2":"2 48285  53.0559 272.7596 0001475  75.8804 284.2349 15.06400803 56418","CENTER_NAME":"EARTH","RA_OF_ASC_NODE":"272.7596","APOAPSIS":"548.233","MEAN_ELEMENT_THEORY":"SGP4","REV_AT_EPOCH":"5641","ELEMENT_SET_NO":"999","MEAN_MOTION_DOT":"0.00000533","SEMIMAJOR_AXIS":"6925.346","SITE":"AFETR","EPHEMERIS_TYPE":"0","ECCENTRICITY":"0.00014750","COUNTRY_CODE":"US","MEAN_MOTION_DDOT":"0.0000000000000","CLASSIFICATION_TYPE":"U","ARG_OF_PERICENTER":"75.8804","TIME_SYSTEM":"UTC","RCS_SIZE":"LARGE"}];
